{"fetched_at":"2026-07-15T06:35:32.501Z","source":"https://celestrak.org/NORAD/elements/gp.php?GROUP=oneweb&FORMAT=JSON","constellation":"oneweb","records":[{"OBJECT_NAME":"ONEWEB-0229","OBJECT_ID":"2021-045N","EPOCH":"2026-07-14T16:05:36.800448","CLASSIFICATION_TYPE":"U","MEAN_MOTION":13.15547257,"ECCENTRICITY":0.0001986,"INCLINATION":87.8992,"RA_OF_ASC_NODE":253.7164,"ARG_OF_PERICENTER":101.4872,"MEAN_ANOMALY":258.6481,"EPHEMERIS_TYPE":0,"NORAD_CAT_ID":48779,"ELEMENT_SET_NO":999,"REV_AT_EPOCH":24802,"BSTAR":0.00024634866,"MEAN_MOTION_DOT":0.00000106,"MEAN_MOTION_DDOT":0},{"OBJECT_NAME":"ONEWEB-0228","OBJECT_ID":"2021-045P","EPOCH":"2026-07-14T16:53:43.234368","CLASSIFICATION_TYPE":"U","MEAN_MOTION":13.15549167,"ECCENTRICITY":0.00020862,"INCLINATION":87.9003,"RA_OF_ASC_NODE":253.7031,"ARG_OF_PERICENTER":100.4348,"MEAN_ANOMALY":259.7017,"EPHEMERIS_TYPE":0,"NORAD_CAT_ID":48780,"ELEMENT_SET_NO":999,"REV_AT_EPOCH":24794,"BSTAR":0.00028365277,"MEAN_MOTION_DOT":0.0000012,"MEAN_MOTION_DDOT":0},{"OBJECT_NAME":"ONEWEB-0232","OBJECT_ID":"2021-045Q","EPOCH":"2026-07-14T16:17:01.772736","CLASSIFICATION_TYPE":"U","MEAN_MOTION":13.15547793,"ECCENTRICITY":0.00022077,"INCLINATION":87.8992,"RA_OF_ASC_NODE":253.7099,"ARG_OF_PERICENTER":97.2678,"MEAN_ANOMALY":262.8704,"EPHEMERIS_TYPE":0,"NORAD_CAT_ID":48781,"ELEMENT_SET_NO":999,"REV_AT_EPOCH":24826,"BSTAR":-0.00026264333,"MEAN_MOTION_DOT":-8.6e-7,"MEAN_MOTION_DDOT":0},{"OBJECT_NAME":"ONEWEB-0231","OBJECT_ID":"2021-045R","EPOCH":"2026-07-14T15:45:04.579200","CLASSIFICATION_TYPE":"U","MEAN_MOTION":13.15547616,"ECCENTRICITY":0.00022184,"INCLINATION":87.8989,"RA_OF_ASC_NODE":253.7251,"ARG_OF_PERICENTER":103.8332,"MEAN_ANOMALY":256.3046,"EPHEMERIS_TYPE":0,"NORAD_CAT_ID":48782,"ELEMENT_SET_NO":999,"REV_AT_EPOCH":24795,"BSTAR":-0.00036579132,"MEAN_MOTION_DOT":-0.00000125,"MEAN_MOTION_DDOT":0},{"OBJECT_NAME":"ONEWEB-0234","OBJECT_ID":"2021-045S","EPOCH":"2026-07-14T16:39:38.623392","CLASSIFICATION_TYPE":"U","MEAN_MOTION":13.15547998,"ECCENTRICITY":0.0002753,"INCLINATION":87.8994,"RA_OF_ASC_NODE":253.6998,"ARG_OF_PERICENTER":87.5315,"MEAN_ANOMALY":272.613,"EPHEMERIS_TYPE":0,"NORAD_CAT_ID":48783,"ELEMENT_SET_NO":999,"REV_AT_EPOCH":24809,"BSTAR":0.00042156486,"MEAN_MOTION_DOT":0.00000172,"MEAN_MOTION_DDOT":0},{"OBJECT_NAME":"ONEWEB-0238","OBJECT_ID":"2021-045T","EPOCH":"2026-07-14T16:40:01.043328","CLASSIFICATION_TYPE":"U","MEAN_MOTION":13.15548455,"ECCENTRICITY":0.00024066,"INCLINATION":87.9,"RA_OF_ASC_NODE":253.696,"ARG_OF_PERICENTER":91.7167,"MEAN_ANOMALY":268.4239,"EPHEMERIS_TYPE":0,"NORAD_CAT_ID":48784,"ELEMENT_SET_NO":999,"REV_AT_EPOCH":24799,"BSTAR":0.00017592351,"MEAN_MOTION_DOT":7.9e-7,"MEAN_MOTION_DDOT":0},{"OBJECT_NAME":"ONEWEB-0240","OBJECT_ID":"2021-045U","EPOCH":"2026-07-14T17:10:37.934976","CLASSIFICATION_TYPE":"U","MEAN_MOTION":13.1554897,"ECCENTRICITY":0.00023636,"INCLINATION":87.8998,"RA_OF_ASC_NODE":253.7012,"ARG_OF_PERICENTER":103.0142,"MEAN_ANOMALY":257.1253,"EPHEMERIS_TYPE":0,"NORAD_CAT_ID":48785,"ELEMENT_SET_NO":999,"REV_AT_EPOCH":24802,"BSTAR":-0.00016152707,"MEAN_MOTION_DOT":-4.8e-7,"MEAN_MOTION_DDOT":0},{"OBJECT_NAME":"ONEWEB-0246","OBJECT_ID":"2021-045V","EPOCH":"2026-07-14T17:02:39.292800","CLASSIFICATION_TYPE":"U","MEAN_MOTION":13.15547729,"ECCENTRICITY":0.00020085,"INCLINATION":87.8996,"RA_OF_ASC_NODE":253.706,"ARG_OF_PERICENTER":101.2565,"MEAN_ANOMALY":258.8791,"EPHEMERIS_TYPE":0,"NORAD_CAT_ID":48786,"ELEMENT_SET_NO":999,"REV_AT_EPOCH":24789,"BSTAR":-0.000067907276,"MEAN_MOTION_DOT":-1.3e-7,"MEAN_MOTION_DDOT":0},{"OBJECT_NAME":"ONEWEB-0210","OBJECT_ID":"2021-045W","EPOCH":"2026-07-14T16:26:08.952576","CLASSIFICATION_TYPE":"U","MEAN_MOTION":13.15547652,"ECCENTRICITY":0.00018016,"INCLINATION":87.8994,"RA_OF_ASC_NODE":253.7088,"ARG_OF_PERICENTER":123.2215,"MEAN_ANOMALY":236.9089,"EPHEMERIS_TYPE":0,"NORAD_CAT_ID":48787,"ELEMENT_SET_NO":999,"REV_AT_EPOCH":24793,"BSTAR":0.000337054,"MEAN_MOTION_DOT":0.0000014,"MEAN_MOTION_DDOT":0},{"OBJECT_NAME":"ONEWEB-0214","OBJECT_ID":"2021-045X","EPOCH":"2026-07-14T16:38:40.902144","CLASSIFICATION_TYPE":"U","MEAN_MOTION":13.1554699,"ECCENTRICITY":0.00017158,"INCLINATION":87.8996,"RA_OF_ASC_NODE":253.7039,"ARG_OF_PERICENTER":101.0528,"MEAN_ANOMALY":259.0796,"EPHEMERIS_TYPE":0,"NORAD_CAT_ID":48788,"ELEMENT_SET_NO":999,"REV_AT_EPOCH":24790,"BSTAR":0.00039041613,"MEAN_MOTION_DOT":0.0000016,"MEAN_MOTION_DDOT":0},{"OBJECT_NAME":"ONEWEB-0221","OBJECT_ID":"2021-045Y","EPOCH":"2026-07-14T16:48:58.278528","CLASSIFICATION_TYPE":"U","MEAN_MOTION":13.15548154,"ECCENTRICITY":0.00021322,"INCLINATION":87.8998,"RA_OF_ASC_NODE":253.7104,"ARG_OF_PERICENTER":103.9847,"MEAN_ANOMALY":256.152,"EPHEMERIS_TYPE":0,"NORAD_CAT_ID":48789,"ELEMENT_SET_NO":999,"REV_AT_EPOCH":24799,"BSTAR":0.00035384199,"MEAN_MOTION_DOT":0.00000146,"MEAN_MOTION_DDOT":0},{"OBJECT_NAME":"ONEWEB-0213","OBJECT_ID":"2021-045Z","EPOCH":"2026-07-14T16:32:59.788896","CLASSIFICATION_TYPE":"U","MEAN_MOTION":13.15548355,"ECCENTRICITY":0.00020795,"INCLINATION":87.8994,"RA_OF_ASC_NODE":253.7161,"ARG_OF_PERICENTER":107.9579,"MEAN_ANOMALY":252.1779,"EPHEMERIS_TYPE":0,"NORAD_CAT_ID":48790,"ELEMENT_SET_NO":999,"REV_AT_EPOCH":24805,"BSTAR":0.00044585435,"MEAN_MOTION_DOT":0.00000181,"MEAN_MOTION_DDOT":0},{"OBJECT_NAME":"ONEWEB-0212","OBJECT_ID":"2021-045AA","EPOCH":"2026-07-14T15:59:53.594592","CLASSIFICATION_TYPE":"U","MEAN_MOTION":13.15547144,"ECCENTRICITY":0.00021204,"INCLINATION":87.8992,"RA_OF_ASC_NODE":253.7151,"ARG_OF_PERICENTER":97.9663,"MEAN_ANOMALY":262.1708,"EPHEMERIS_TYPE":0,"NORAD_CAT_ID":48791,"ELEMENT_SET_NO":999,"REV_AT_EPOCH":24804,"BSTAR":-0.000095279094,"MEAN_MOTION_DOT":-2.3e-7,"MEAN_MOTION_DDOT":0},{"OBJECT_NAME":"ONEWEB-0227","OBJECT_ID":"2021-045AB","EPOCH":"2026-07-14T15:58:46.035840","CLASSIFICATION_TYPE":"U","MEAN_MOTION":13.15547579,"ECCENTRICITY":0.00021401,"INCLINATION":87.8992,"RA_OF_ASC_NODE":253.7153,"ARG_OF_PERICENTER":100.4379,"MEAN_ANOMALY":259.6992,"EPHEMERIS_TYPE":0,"NORAD_CAT_ID":48792,"ELEMENT_SET_NO":999,"REV_AT_EPOCH":24799,"BSTAR":0.000013925485,"MEAN_MOTION_DOT":1.8e-7,"MEAN_MOTION_DDOT":0},{"OBJECT_NAME":"ONEWEB-0226","OBJECT_ID":"2021-045AC","EPOCH":"2026-07-14T15:49:38.255520","CLASSIFICATION_TYPE":"U","MEAN_MOTION":13.15547924,"ECCENTRICITY":0.00020162,"INCLINATION":87.8993,"RA_OF_ASC_NODE":253.7212,"ARG_OF_PERICENTER":105.1889,"MEAN_ANOMALY":254.9465,"EPHEMERIS_TYPE":0,"NORAD_CAT_ID":48793,"ELEMENT_SET_NO":999,"REV_AT_EPOCH":24796,"BSTAR":-0.00038881797,"MEAN_MOTION_DOT":-0.00000134,"MEAN_MOTION_DDOT":0},{"OBJECT_NAME":"ONEWEB-0224","OBJECT_ID":"2021-045AD","EPOCH":"2026-07-14T16:46:41.414016","CLASSIFICATION_TYPE":"U","MEAN_MOTION":13.15548643,"ECCENTRICITY":0.00029564,"INCLINATION":87.8986,"RA_OF_ASC_NODE":253.7455,"ARG_OF_PERICENTER":98.9664,"MEAN_ANOMALY":261.1801,"EPHEMERIS_TYPE":0,"NORAD_CAT_ID":48794,"ELEMENT_SET_NO":999,"REV_AT_EPOCH":24789,"BSTAR":0.00017729022,"MEAN_MOTION_DOT":8e-7,"MEAN_MOTION_DDOT":0}]}
